0 CZ-3 DEB
1 25936U 86010D   13278.60601692  .00000726  00000-0  23899-2 0  5962
2 25936 030.3105 180.7679 6867914 225.3920 336.3143 02.70316361130355
0 CZ-3 DEB
1 25936U 86010D   13279.75427623  .00000909  00000-0  27347-2 0  5975
2 25936 030.3094 180.2785 6868051 226.1571 013.7328 02.70317829130383
0 CZ-3 DEB
1 25936U 86010D   13284.17147213  .00001455  00000-0  40804-2 0  5982
2 25936 030.3077 178.3974 6868749 229.1014 352.3948 02.70333820130504
0 CZ-3 DEB
1 25936U 86010D   13285.30535800  .00001131  00000-0  32943-2 0  5998
2 25936 030.3076 177.9140 6868983 229.8572 015.8893 02.70336252130534
0 CZ-3 DEB
1 25936U 86010D   13287.12732451  .00001486  00000-0  45357-2 0  6000
2 25936 030.3071 177.1388 6869251 231.0710 349.0527 02.70340297130588
0 CZ-3 DEB
1 25936U 86010D   13292.33234676  .00001965  00000-0  57505-2 0  6016
2 25936 030.3054 174.9227 6870019 234.5419 014.8983 02.70363230130725
